{"type": "FeatureCollection", "features": [ {"type": "Feature", "properties": {"norad_id": 44476, "name": "INTELSAT 39 (IS-39)", "group": "intelsat", "lat": -0.032301248457702346, "lon": -117.19860852074052, "alt_km": 35787.00393551307, "timestamp": "2025-12-24T05:51:19.273421+00:00", "meta": {"OBJECT_NAME": "INTELSAT 39 (IS-39)", "OBJECT_ID": "2019-049B", "EPOCH": "2025-12-23T21:59:08.562912", "MEAN_MOTION": 1.00270278, "ECCENTRICITY": 0.00011489, "INCLINATION": 0.0162, "RA_OF_ASC_NODE": 4.4755, "ARG_OF_PERICENTER": 142.4583, "MEAN_ANOMALY": 337.4949, "EPHEMERIS_TYPE": 0, "CLASSIFICATION_TYPE": "U", "NORAD_CAT_ID": 44476, "ELEMENT_SET_NO": 999, "REV_AT_EPOCH": 2337, "BSTAR": 0, "MEAN_MOTION_DOT": 5.5e-07, "MEAN_MOTION_DDOT": 0}, "tle": {"line1": "1 44476U 19049B   25357.91607133  .00000055  00000+0  00000+0 0  9998", "line2": "2 44476   0.0162   4.4755 0001148 142.4583 337.4949  1.00270278 23373"}}, "geometry": {"type": "Point", "coordinates": [-117.19860852074052, -0.032301248457702346]}}, {"type": "Feature", "properties": {"norad_id": 46114, "name": "GALAXY 30 (G-30)", "group": "intelsat", "lat": 0.02741718784827501, "lon": 55.85583969359341, "alt_km": 35793.81042935166, "timestamp": "2025-12-24T05:51:19.273432+00:00", "meta": {"OBJECT_NAME": "GALAXY 30 (G-30)", "OBJECT_ID": "2020-056C", "EPOCH": "2025-12-23T12:01:58.978848", "MEAN_MOTION": 1.00270252, "ECCENTRICITY": 0.00020441, "INCLINATION": 0.0186, "RA_OF_ASC_NODE": 17.2667, "ARG_OF_PERICENTER": 250.3763, "MEAN_ANOMALY": 240.1441, "EPHEMERIS_TYPE": 0, "CLASSIFICATION_TYPE": "U", "NORAD_CAT_ID": 46114, "ELEMENT_SET_NO": 999, "REV_AT_EPOCH": 1953, "BSTAR": 0, "MEAN_MOTION_DOT": 5.8e-07, "MEAN_MOTION_DDOT": 0}, "tle": {"line1": "1 46114U 20056C   25357.50137707  .00000058  00000+0  00000+0 0  9992", "line2": "2 46114   0.0186  17.2667 0002044 250.3763 240.1441  1.00270252 19531"}}, "geometry": {"type": "Point", "coordinates": [55.85583969359341, 0.02741718784827501]}}, {"type": "Feature", "properties": {"norad_id": 54026, "name": "GALAXY 33 (G-33)", "group": "intelsat", "lat": 0.02316917090175244, "lon": 47.86231096518321, "alt_km": 35791.39947543449, "timestamp": "2025-12-24T05:51:19.273444+00:00", "meta": {"OBJECT_NAME": "GALAXY 33 (G-33)", "OBJECT_ID": "2022-128A", "EPOCH": "2025-12-22T11:35:15.906336", "MEAN_MOTION": 1.00271669, "ECCENTRICITY": 0.00015964, "INCLINATION": 0.0184, "RA_OF_ASC_NODE": 305.6803, "ARG_OF_PERICENTER": 318.2802, "MEAN_ANOMALY": 228.1459, "EPHEMERIS_TYPE": 0, "CLASSIFICATION_TYPE": "U", "NORAD_CAT_ID": 54026, "ELEMENT_SET_NO": 999, "REV_AT_EPOCH": 1197, "BSTAR": 0, "MEAN_MOTION_DOT": 1.01e-06, "MEAN_MOTION_DDOT": 0}, "tle": {"line1": "1 54026U 22128A   25356.48282299  .00000101  00000+0  00000+0 0  9997", "line2": "2 54026   0.0184 305.6803 0001596 318.2802 228.1459  1.00271669 11973"}}, "geometry": {"type": "Point", "coordinates": [47.86231096518321, 0.02316917090175244]}}, {"type": "Feature", "properties": {"norad_id": 54027, "name": "GALAXY 34 (G-34)", "group": "intelsat", "lat": 0.035784547547379565, "lon": 51.89665535399022, "alt_km": 35793.042209042476, "timestamp": "2025-12-24T05:51:19.273455+00:00", "meta": {"OBJECT_NAME": "GALAXY 34 (G-34)", "OBJECT_ID": "2022-128B", "EPOCH": "2025-12-23T15:56:35.633184", "MEAN_MOTION": 1.00269552, "ECCENTRICITY": 0.00017697, "INCLINATION": 0.0227, "RA_OF_ASC_NODE": 350.2432, "ARG_OF_PERICENTER": 273.0766, "MEAN_ANOMALY": 299.324, "EPHEMERIS_TYPE": 0, "CLASSIFICATION_TYPE": "U", "NORAD_CAT_ID": 54027, "ELEMENT_SET_NO": 999, "REV_AT_EPOCH": 1215, "BSTAR": 0, "MEAN_MOTION_DOT": 0, "MEAN_MOTION_DDOT": 0}, "tle": {"line1": "1 54027U 22128B   25357.66430131  .00000000  00000+0  00000+0 0  9997", "line2": "2 54027   0.0227 350.2432 0001769 273.0766 299.3240  1.00269552 12152"}}, "geometry": {"type": "Point", "coordinates": [51.89665535399022, 0.035784547547379565]}}, {"type": "Feature", "properties": {"norad_id": 54243, "name": "GALAXY 31 (G-31)", "group": "intelsat", "lat": 0.013904449133245143, "lon": 59.85251483388198, "alt_km": 35790.80601164828, "timestamp": "2025-12-24T05:51:19.273467+00:00", "meta": {"OBJECT_NAME": "GALAXY 31 (G-31)", "OBJECT_ID": "2022-153A", "EPOCH": "2025-12-23T15:58:50.418048", "MEAN_MOTION": 1.00271329, "ECCENTRICITY": 0.00014745, "INCLINATION": 0.0283, "RA_OF_ASC_NODE": 245.972, "ARG_OF_PERICENTER": 36.0828, "MEAN_ANOMALY": 289.1035, "EPHEMERIS_TYPE": 0, "CLASSIFICATION_TYPE": "U", "NORAD_CAT_ID": 54243, "ELEMENT_SET_NO": 999, "REV_AT_EPOCH": 537, "BSTAR": 0, "MEAN_MOTION_DOT": 3.4e-07, "MEAN_MOTION_DDOT": 0}, "tle": {"line1": "1 54243U 22153A   25357.66586132  .00000034  00000+0  00000+0 0  9995", "line2": "2 54243   0.0283 245.9720 0001474  36.0828 289.1035  1.00271329  5373"}}, "geometry": {"type": "Point", "coordinates": [59.85251483388198, 0.013904449133245143]}}, {"type": "Feature", "properties": {"norad_id": 54244, "name": "GALAXY 32 (G-32)", "group": "intelsat", "lat": 0.03243149306665775, "lon": 89.85042382217026, "alt_km": 35792.027562919466, "timestamp": "2025-12-24T05:51:19.273479+00:00", "meta": {"OBJECT_NAME": "GALAXY 32 (G-32)", "OBJECT_ID": "2022-153B", "EPOCH": "2025-12-22T07:35:47.616576", "MEAN_MOTION": 1.00270236, "ECCENTRICITY": 0.00019823, "INCLINATION": 0.0109, "RA_OF_ASC_NODE": 353.9495, "ARG_OF_PERICENTER": 325.6757, "MEAN_ANOMALY": 154.4441, "EPHEMERIS_TYPE": 0, "CLASSIFICATION_TYPE": "U", "NORAD_CAT_ID": 54244, "ELEMENT_SET_NO": 999, "REV_AT_EPOCH": 1137, "BSTAR": 0, "MEAN_MOTION_DOT": -1.52e-06, "MEAN_MOTION_DDOT": 0}, "tle": {"line1": "1 54244U 22153B   25356.31652334 -.00000152  00000+0  00000+0 0  9997", "line2": "2 54244   0.0109 353.9495 0001982 325.6757 154.4441  1.00270236 11370"}}, "geometry": {"type": "Point", "coordinates": [89.85042382217026, 0.03243149306665775]}}, {"type": "Feature", "properties": {"norad_id": 54741, "name": "GALAXY 35 (G-35)", "group": "intelsat", "lat": 0.015615907486355083, "lon": 87.7572372505744, "alt_km": 35795.55961085481, "timestamp": "2025-12-24T05:51:19.273491+00:00", "meta": {"OBJECT_NAME": "GALAXY 35 (G-35)", "OBJECT_ID": "2022-170A", "EPOCH": "2025-12-23T08:01:29.618112", "MEAN_MOTION": 1.00271513, "ECCENTRICITY": 0.00022267, "INCLINATION": 0.0237, "RA_OF_ASC_NODE": 89.5985, "ARG_OF_PERICENTER": 184.9398, "MEAN_ANOMALY": 204.8698, "EPHEMERIS_TYPE": 0, "CLASSIFICATION_TYPE": "U", "NORAD_CAT_ID": 54741, "ELEMENT_SET_NO": 999, "REV_AT_EPOCH": 1113, "BSTAR": 0, "MEAN_MOTION_DOT": -1.41e-06, "MEAN_MOTION_DDOT": 0}, "tle": {"line1": "1 54741U 22170A   25357.33437058 -.00000141  00000+0  00000+0 0  9993", "line2": "2 54741   0.0237  89.5985 0002226 184.9398 204.8698  1.00271513 11136"}}, "geometry": {"type": "Point", "coordinates": [87.7572372505744, 0.015615907486355083]}}, {"type": "Feature", "properties": {"norad_id": 54742, "name": "GALAXY 36 (G-36)", "group": "intelsat", "lat": 0.024231352468678604, "lon": 91.8456019339439, "alt_km": 35787.24947758354, "timestamp": "2025-12-24T05:51:19.273502+00:00", "meta": {"OBJECT_NAME": "GALAXY 36 (G-36)", "OBJECT_ID": "2022-170B", "EPOCH": "2025-12-23T08:03:26.169120", "MEAN_MOTION": 1.00270368, "ECCENTRICITY": 4.615e-05, "INCLINATION": 0.0187, "RA_OF_ASC_NODE": 67.8627, "ARG_OF_PERICENTER": 272.3053, "MEAN_ANOMALY": 143.8174, "EPHEMERIS_TYPE": 0, "CLASSIFICATION_TYPE": "U", "NORAD_CAT_ID": 54742, "ELEMENT_SET_NO": 999, "REV_AT_EPOCH": 1101, "BSTAR": 0, "MEAN_MOTION_DOT": -1.64e-06, "MEAN_MOTION_DDOT": 0}, "tle": {"line1": "1 54742U 22170B   25357.33571955 -.00000164  00000+0  00000+0 0  9994", "line2": "2 54742   0.0187  67.8627 0000461 272.3053 143.8174  1.00270368 11017"}}, "geometry": {"type": "Point", "coordinates": [91.8456019339439, 0.024231352468678604]}}, {"type": "Feature", "properties": {"norad_id": 57493, "name": "GALAXY 37 (G-37)", "group": "intelsat", "lat": 0.030065196797776632, "lon": 53.85232780551719, "alt_km": 35792.434864580806, "timestamp": "2025-12-24T05:51:19.273513+00:00", "meta": {"OBJECT_NAME": "GALAXY 37 (G-37)", "OBJECT_ID": "2023-112A", "EPOCH": "2025-12-23T15:57:05.584608", "MEAN_MOTION": 1.00271472, "ECCENTRICITY": 0.00020231, "INCLINATION": 0.0168, "RA_OF_ASC_NODE": 359.8398, "ARG_OF_PERICENTER": 276.5793, "MEAN_ANOMALY": 288.2964, "EPHEMERIS_TYPE": 0, "CLASSIFICATION_TYPE": "U", "NORAD_CAT_ID": 57493, "ELEMENT_SET_NO": 999, "REV_AT_EPOCH": 878, "BSTAR": 0, "MEAN_MOTION_DOT": 6.9e-07, "MEAN_MOTION_DDOT": 0}, "tle": {"line1": "1 57493U 23112A   25357.66464797  .00000069  00000+0  00000+0 0  9991", "line2": "2 57493   0.0168 359.8398 0002023 276.5793 288.2964  1.00271472  8782"}}, "geometry": {"type": "Point", "coordinates": [53.85232780551719, 0.030065196797776632]}}]}